NORAD_CAT_ID,OBJECT_NAME,OBJECT_TYPE,EPOCH,MEAN_MOTION,ECCENTRICITY,INCLINATION,RA_OF_ASC_NODE,ARG_OF_PERICENTER,MEAN_ANOMALY,BSTAR,MEAN_MOTION_DOT,MEAN_MOTION_DDOT,TLE_LINE0,TLE_LINE1,TLE_LINE2,SEMIMAJOR_AXIS,PERIOD,APOGEE,PERIGEE,DECAYED
54005.0,STARLINK-5135,PAYLOAD,2024-04-03 03:33:02,15.0884039,0.0001602,53.2163,141.1429,97.7147,262.4027,0.00012926,1.77e-05,0.0,0 STARLINK-5135,1 54005U 22125AT  24094.14795135  .00001770  00000-0  12926-3 0  9998,2 54005  53.2163 141.1429 0001602  97.7147 262.4027 15.08840390 83004,6917.879,95.438,540.852,538.636,0.0
54005.0,STARLINK-5135,PAYLOAD,2024-04-03 13:05:21,15.08838586,0.0001255,53.2152,139.3593,92.5302,267.5834,1.588e-05,-3.5e-07,0.0,0 STARLINK-5135,1 54005U 22125AT  24094.54539247 -.00000035  00000-0  15880-4 0  9999,2 54005  53.2152 139.3593 0001255  92.5302 267.5834 15.08838586 83010,6917.885,95.438,540.618,538.882,0.0
54005.0,STARLINK-5135,PAYLOAD,2024-04-03 19:26:54,15.08833695,0.000126,53.2153,138.1695,91.4672,268.6465,-6.4109e-05,-1.308e-05,0.0,0 STARLINK-5135,1 54005U 22125AT  24094.81035544 -.00001308  00000-0 -64109-4 0  9993,2 54005  53.2153 138.1695 0001260  91.4672 268.6465 15.08833695 83103,6917.9,95.438,540.636,538.893,0.0
54005.0,STARLINK-5135,PAYLOAD,2024-04-04 09:45:23,15.08843039,0.0001254,53.2159,135.4939,97.6469,262.4666,-0.00017268,-3.035e-05,0.0,0 STARLINK-5135,1 54005U 22125AT  24095.40651948 -.00003035  00000-0 -17268-3 0  9993,2 54005  53.2159 135.4939 0001254  97.6469 262.4666 15.08843039 83147,6917.871,95.437,540.604,538.869,0.0
54005.0,STARLINK-5135,PAYLOAD,2024-04-04 19:17:41,15.08845509,0.0001188,53.2159,133.7097,97.943,262.1697,-0.00011223,-2.074e-05,0.0,0 STARLINK-5135,1 54005U 22125AT  24095.80395546 -.00002074  00000-0 -11223-3 0  9993,2 54005  53.2159 133.7097 0001188  97.9430 262.1697 15.08845509 83257,6917.864,95.437,540.55,538.907,0.0
54005.0,STARLINK-5135,PAYLOAD,2024-04-05 12:46:56,15.0884264,0.0001178,53.216,130.4387,94.0009,266.1118,0.0001767,2.526e-05,0.0,0 STARLINK-5135,1 54005U 22125AT  24096.53259318  .00002526  00000-0  17670-3 0  9992,2 54005  53.2160 130.4387 0001178  94.0009 266.1118 15.08842640 83316,6917.872,95.437,540.552,538.922,0.0
54005.0,STARLINK-5135,PAYLOAD,2024-04-05 19:08:28,15.0883996,0.0001145,53.2156,129.2491,93.7547,266.3576,0.00015024,2.104e-05,0.0,0 STARLINK-5135,1 54005U 22125AT  24096.79755597  .00002104  00000-0  15024-3 0  9993,2 54005  53.2156 129.2491 0001145  93.7547 266.3576 15.08839960 83355,6917.881,95.438,540.538,538.953,0.0
54005.0,STARLINK-5135,PAYLOAD,2024-04-06 01:30:01,15.08838695,0.0001135,53.216,128.0597,93.7505,266.3617,0.00018735,2.695e-05,0.0,0 STARLINK-5135,1 54005U 22125AT  24097.06251677  .00002695  00000-0  18735-3 0  9991,2 54005  53.2160 128.0597 0001135  93.7505 266.3617 15.08838695 83447,6917.884,95.438,540.535,538.964,0.0
54005.0,STARLINK-5135,PAYLOAD,2024-04-06 11:02:20,15.08845695,0.0001192,53.2151,126.2756,90.8458,269.267,0.00018988,2.736e-05,0.0,0 STARLINK-5135,1 54005U 22125AT  24097.45995427  .00002736  00000-0  18988-3 0  9998,2 54005  53.2151 126.2756 0001192  90.8458 269.2670 15.08845695 83452,6917.863,95.437,540.553,538.903,0.0
54005.0,STARLINK-5135,PAYLOAD,2024-04-06 18:59:15,15.0884275,0.000128,53.2152,124.7872,81.7866,278.3272,8.9474e-05,1.136e-05,0.0,0 STARLINK-5135,1 54005U 22125AT  24097.79115580  .00001136  00000-0  89474-4 0  9991,2 54005  53.2152 124.7872 0001280  81.7866 278.3272 15.08842750 83509,6917.872,95.437,540.622,538.851,0.0
54005.0,STARLINK-5135,PAYLOAD,2024-04-07 09:17:44,15.08846361,0.0001352,53.2168,122.111,83.3755,276.7391,-3.3733e-06,-3.42e-06,0.0,0 STARLINK-5135,1 54005U 22125AT  24098.38731738 -.00000342  00000-0 -33733-5 0  9994,2 54005  53.2168 122.1110 0001352  83.3755 276.7391 15.08846361 83649,6917.861,95.437,540.661,538.791,0.0
54005.0,STARLINK-5135,PAYLOAD,2024-04-07 18:50:02,15.08852135,0.0001391,53.217,120.3271,84.9514,275.1637,-3.7747e-05,-8.89e-06,0.0,0 STARLINK-5135,1 54005U 22125AT  24098.78475260 -.00000889  00000-0 -37747-4 0  9997,2 54005  53.2170 120.3271 0001391  84.9514 275.1637 15.08852135 83656,6917.843,95.437,540.671,538.746,0.0
54005.0,STARLINK-5135,PAYLOAD,2024-04-08 07:33:07,15.08848906,0.0001342,53.2161,117.9481,84.0229,276.0916,9.5234e-05,1.228e-05,0.0,0 STARLINK-5135,1 54005U 22125AT  24099.31467072  .00001228  00000-0  95234-4 0  9990,2 54005  53.2161 117.9481 0001342  84.0229 276.0916 15.08848906 83731,6917.853,95.437,540.647,538.79,0.0
54005.0,STARLINK-5135,PAYLOAD,2024-04-08 20:16:12,15.08844759,0.0001315,53.2159,115.5696,82.5355,277.5787,7.5698e-05,9.17e-06,0.0,0 STARLINK-5135,1 54005U 22125AT  24099.84459229  .00000917  00000-0  75698-4 0  9999,2 54005  53.2159 115.5696 0001315  82.5355 277.5787 15.08844759 83816,6917.866,95.437,540.641,538.821,0.0
54005.0,STARLINK-5135,PAYLOAD,2024-04-09 04:13:08,15.08839591,0.0001296,53.2159,114.083,82.2423,277.8716,8.4089e-05,1.051e-05,0.0,0 STARLINK-5135,1 54005U 22125AT  24100.17579525  .00001051  00000-0  84089-4 0  9994,2 54005  53.2159 114.0830 0001296  82.2423 277.8716 15.08839591 83915,6917.882,95.438,540.643,538.85,0.0
54005.0,STARLINK-5135,PAYLOAD,2024-04-09 07:23:54,15.08842018,0.0001273,53.2159,113.4879,83.8057,276.308,0.00010419,1.371e-05,0.0,0 STARLINK-5135,1 54005U 22125AT  24100.30827305  .00001371  00000-0  10419-3 0  9991,2 54005  53.2159 113.4879 0001273  83.8057 276.3080 15.08842018 83888,6917.874,95.437,540.62,538.859,0.0
54005.0,STARLINK-5135,PAYLOAD,2024-04-10 07:14:42,15.08839953,0.0001381,53.2159,109.0254,91.8538,268.2612,-5.1427e-06,-3.7e-06,0.0,0 STARLINK-5135,1 54005U 22125AT  24101.30187597 -.00000370  00000-0 -51427-5 0  9990,2 54005  53.2159 109.0254 0001381  91.8538 268.2612 15.08839953 84087,6917.881,95.438,540.701,538.79,0.0
54005.0,STARLINK-5135,PAYLOAD,2024-04-11 07:05:29,15.08838601,0.000139,53.2163,104.5661,92.4571,267.658,5.5984e-05,6.03e-06,0.0,0 STARLINK-5135,1 54005U 22125AT  24102.29547648  .00000603  00000-0  55984-4 0  9994,2 54005  53.2163 104.5661 0001390  92.4571 267.6580 15.08838601 84185,6917.885,95.438,540.711,538.788,0.0
54005.0,STARLINK-5135,PAYLOAD,2024-04-11 16:37:48,15.08837693,0.0001408,53.2168,102.7821,92.1577,267.9576,5.1539e-05,5.32e-06,0.0,0 STARLINK-5135,1 54005U 22125AT  24102.69291812  .00000532  00000-0  51539-4 0  9990,2 54005  53.2168 102.7821 0001408  92.1577 267.9576 15.08837693 84291,6917.887,95.438,540.726,538.778,0.0
54005.0,STARLINK-5135,PAYLOAD,2024-04-12 05:20:53,15.08834982,0.0001441,53.2174,100.4042,94.3477,265.768,5.8598e-05,6.45e-06,0.0,0 STARLINK-5135,1 54005U 22125AT  24103.22284143  .00000645  00000-0  58598-4 0  9996,2 54005  53.2174 100.4042 0001441  94.3477 265.7680 15.08834982 84322,6917.896,95.438,540.758,538.764,0.0
54005.0,STARLINK-5135,PAYLOAD,2024-04-13 03:36:17,15.0883764,0.0001443,53.2175,96.2421,99.7755,260.34,4.1497e-05,3.72e-06,0.0,0 STARLINK-5135,1 54005U 22125AT  24104.15020311  .00000372  00000-0  41497-4 0  9991,2 54005  53.2175  96.2421 0001443  99.7755 260.3400 15.08837640 84512,6917.888,95.438,540.751,538.754,0.0
54005.0,STARLINK-5135,PAYLOAD,2024-04-13 08:22:26,15.08839382,0.0001428,53.2174,95.3497,97.9817,262.1337,5.1312e-05,5.29e-06,0.0,0 STARLINK-5135,1 54005U 22125AT  24104.34892193  .00000529  00000-0  51312-4 0  9998,2 54005  53.2174  95.3497 0001428  97.9817 262.1337 15.08839382 84497,6917.882,95.438,540.735,538.759,0.0
54005.0,STARLINK-5135,PAYLOAD,2024-04-14 05:02:27,15.08841811,0.0001428,53.2178,91.4842,89.5244,270.5912,9.3988e-05,1.208e-05,0.0,0 STARLINK-5135,1 54005U 22125AT  24105.21004079  .00001208  00000-0  93988-4 0  9993,2 54005  53.2178  91.4842 0001428  89.5244 270.5912 15.08841811 84675,6917.875,95.437,540.728,538.752,0.0
54005.0,STARLINK-5135,PAYLOAD,2024-04-14 08:13:13,15.08844765,0.0001438,53.2176,90.8883,88.7602,271.3554,0.0001162,1.562e-05,0.0,0 STARLINK-5135,1 54005U 22125AT  24105.34251828  .00001562  00000-0  11620-3 0  9998,2 54005  53.2176  90.8883 0001438  88.7602 271.3554 15.08844765 84640,6917.866,95.437,540.726,538.736,0.0
54005.0,STARLINK-5135,PAYLOAD,2024-04-15 08:04:00,15.08844911,0.0001603,53.218,86.4264,80.911,279.2063,9.5124e-05,1.226e-05,0.0,0 STARLINK-5135,1 54005U 22125AT  24106.33612019  .00001226  00000-0  95124-4 0  9990,2 54005  53.2180  86.4264 0001603  80.9110 279.2063 15.08844911 84848,6917.865,95.437,540.839,538.621,0.0
54005.0,STARLINK-5135,PAYLOAD,2024-04-16 07:54:47,15.08854329,0.0001459,53.2167,81.9659,98.7788,261.3369,0.00010856,1.441e-05,0.0,0 STARLINK-5135,1 54005U 22125AT  24107.32971166  .00001441  00000-0  10856-3 0  9998,2 54005  53.2167  81.9659 0001459  98.7788 261.3369 15.08854329 84944,6917.837,95.437,540.711,538.692,0.0
54005.0,STARLINK-5135,PAYLOAD,2024-04-16 15:51:42,15.08851571,0.0001177,53.2175,80.4795,98.47,261.6425,5.1197e-05,5.27e-06,0.0,0 STARLINK-5135,1 54005U 22125AT  24107.66091258  .00000527  00000-0  51197-4 0  9998,2 54005  53.2175  80.4795 0001177  98.4700 261.6425 15.08851571 85040,6917.845,95.437,540.524,538.896,0.0
54005.0,STARLINK-5135,PAYLOAD,2024-04-17 04:34:48,15.08849472,0.0001638,53.2167,78.1016,85.6873,274.4306,0.00016637,2.361e-05,0.0,0 STARLINK-5135,1 54005U 22125AT  24108.19083669  .00002361  00000-0  16637-3 0  9991,2 54005  53.2167  78.1016 0001638  85.6873 274.4306 15.08849472 85128,6917.851,95.437,540.85,538.583,0.0
54005.0,STARLINK-5135,PAYLOAD,2024-04-17 07:45:34,15.08855108,0.0001646,53.2178,77.5034,101.8859,258.2318,0.00023927,3.524e-05,0.0,0 STARLINK-5135,1 54005U 22125AT  24108.32331220  .00003524  00000-0  23927-3 0  9997,2 54005  53.2178  77.5034 0001646 101.8859 258.2318 15.08855108 85099,6917.834,95.437,540.838,538.561,0.0
54005.0,STARLINK-5135,PAYLOAD,2024-04-18 01:14:49,15.08827891,0.000149,53.2147,74.2326,119.0977,241.0164,-0.00013975,-2.511e-05,0.0,0 STARLINK-5135,1 54005U 22125AT  24109.05196741 -.00002511  00000-0 -13975-3 0  9994,2 54005  53.2147  74.2326 0001490 119.0977 241.0164 15.08827891 85257,6917.917,95.438,540.813,538.752,0.0
